"full_name","e","q","i","om","w","ad","tp_cal","per_y","class","data_arc","condition_code","n_obs_used","two_body","A1","A2","A3","DT"
"   73P/Schwassmann-Wachmann 3-S",0.6934,1.022,11.05,81.99,181.56,5.65,2006-06-08.7,6.09,JFc,1,9,11,,,,,
"   73P/Schwassmann-Wachmann 3-T",0.6930,0.940,11.40,69.89,198.81,5.18,2006-06-08.8,5.35,JFc,4087,1,44,,,,,
"   73P/Schwassmann-Wachmann 3-U",0.6894,0.939,11.36,69.83,198.84,5.11,2006-06-09.0,5.26,JFc,16,8,21,,,,,
"   73P/Schwassmann-Wachmann 3-V",0.6935,0.920,11.57,66.63,203.11,5.08,2006-06-08.6,5.2,JFc,10,9,11,,,,,
"   73P/Schwassmann-Wachmann 3-W",0.6983,0.939,11.42,70.04,198.63,5.29,2006-06-08.4,5.49,JFc,29,8,15,,,,,
"   73P/Schwassmann-Wachmann 3-X",0.6954,0.939,11.40,69.94,198.74,5.23,2006-06-08.5,5.41,JFc,36,6,38,,,,,
"   73P/Schwassmann-Wachmann 3-Y",0.7181,0.939,11.55,70.63,198.01,5.72,2006-06-08.6,6.08,JFc,34,8,15,,,,,
"   73P/Schwassmann-Wachmann 3-Z",0.6934,0.942,11.34,70.58,197.91,5.20,2006-06-08.3,5.39,JFc,6,9,16,,,,,
"   73P/Schwassmann-Wachmann 3-AA",0.6806,0.939,11.30,69.57,199.11,4.94,2006-06-09.1,5.04,JFc,19,8,36,,,,,
"   73P/Schwassmann-Wachmann 3-AB",0.6912,0.939,11.37,69.86,198.82,5.14,2006-06-08.7,5.31,JFc,31,7,35,,,,,
"   73P/Schwassmann-Wachmann 3-AC",0.6954,0.939,11.41,69.93,198.75,5.23,2006-06-08.6,5.41,JFc,30,7,45,,,,,
"   73P/Schwassmann-Wachmann 3-AD",0.6934,0.941,11.37,70.22,198.37,5.19,2006-06-08.6,5.37,JFc,6,9,11,,,,,
"   73P/Schwassmann-Wachmann 3-AE",0.6967,0.939,11.41,69.97,198.71,5.25,2006-06-08.3,5.45,JFc,20,8,43,,,,,
"   73P/Schwassmann-Wachmann 3-AF",0.6763,0.941,11.24,69.85,198.72,4.87,2006-06-07.0,4.96,JFc,7,9,25,,,,,
"   73P/Schwassmann-Wachmann 3-AG",0.6958,0.939,11.41,69.96,198.71,5.23,2006-06-08.9,5.42,JFc,24,7,79,,,,,
"   73P/Schwassmann-Wachmann 3-AH",0.6934,0.943,11.33,70.71,197.74,5.21,2006-06-08.6,5.39,JFc,3,9,19,,,,,
"   73P/Schwassmann-Wachmann 3-AI",0.6982,0.939,11.43,69.97,198.73,5.28,2006-06-08.7,5.49,JFc,31,8,17,,,,,
"   73P/Schwassmann-Wachmann 3-AJ",0.6624,0.941,11.14,69.39,199.21,4.63,2006-06-08.9,4.65,JFc,19,9,19,,,-1.2e-06,,
"   73P/Schwassmann-Wachmann 3-AK",0.6934,0.938,11.43,69.38,199.33,5.18,2006-06-08.3,5.35,JFc,11,9,12,,,,,
"   73P/Schwassmann-Wachmann 3-AL",0.6998,0.939,11.44,69.98,198.72,5.32,2006-06-08.4,5.53,JFc,14,9,15,,,,,
"   73P/Schwassmann-Wachmann 3-AM",0.6934,0.931,11.54,68.12,201.09,5.14,2006-06-08.2,5.29,JFc,2,9,12,,,,,
"   73P/Schwassmann-Wachmann 3-AN",0.6948,0.939,11.41,69.89,198.80,5.21,2006-06-08.3,5.4,JFc,18,8,43,,,,,
"   73P/Schwassmann-Wachmann 3-AO",0.6938,0.941,11.33,70.39,198.17,5.20,2006-06-07.8,5.38,JFc,2,9,19,,,,,
"   73P/Schwassmann-Wachmann 3-AP",0.7014,0.939,11.47,69.97,198.74,5.35,2006-06-06.6,5.58,JFc,15,8,95,,,,,
"   73P/Schwassmann-Wachmann 3-AQ",0.6959,0.939,11.41,69.92,198.77,5.24,2006-06-07.9,5.43,JFc,27,7,185,,,,,
"   73P/Schwassmann-Wachmann 3-AR",0.6958,0.939,11.41,69.97,198.71,5.24,2006-06-06.8,5.43,JFc,14,9,15,,,,,
"   73P/Schwassmann-Wachmann 3-AS",0.7011,0.939,11.46,69.98,198.72,5.34,2006-06-06.2,5.57,JFc,12,8,36,,,,,
"   73P/Schwassmann-Wachmann 3-AT",0.6869,0.940,11.33,69.85,198.81,5.06,2006-06-06.2,5.2,JFc,21,8,25,,,,,
"   73P/Schwassmann-Wachmann 3-AU",0.6928,0.939,11.38,69.91,198.76,5.18,2006-06-08.0,5.35,JFc,30,8,12,,,,,
"   73P/Schwassmann-Wachmann 3-AV",0.6934,0.939,11.40,69.87,198.86,5.19,2006-06-06.4,5.36,JFc,19,8,9,,,,,
"   73P/Schwassmann-Wachmann 3-AW",0.6482,0.942,10.98,69.48,199.09,4.41,2006-06-08.1,4.38,ETc,7,9,29,,,,,
"   73P/Schwassmann-Wachmann 3-AX",0.6925,0.938,11.43,69.47,199.25,5.16,2006-06-09.4,5.33,JFc,2,9,16,,,,,
"   73P/Schwassmann-Wachmann 3-AY",0.6640,0.941,11.13,69.59,199.02,4.66,2006-06-08.9,4.69,JFc,7,9,27,,,,,
"   73P/Schwassmann-Wachmann 3-AZ",0.6441,0.942,10.93,69.50,199.04,4.35,2006-06-07.0,4.31,ETc,7,9,11,,,,,
"   73P/Schwassmann-Wachmann 3-BA",0.6824,0.940,11.27,69.92,198.69,4.98,2006-06-06.5,5.09,JFc,7,9,14,,,,,
"   73P/Schwassmann-Wachmann 3-BB",0.6824,0.942,11.19,70.47,197.93,4.99,2006-06-07.0,5.11,JFc,2,9,15,,,,,
"   73P/Schwassmann-Wachmann 3-BC",0.7005,0.939,11.46,69.96,198.75,5.33,2006-06-06.6,5.55,JFc,11,8,63,,,,,
"   73P/Schwassmann-Wachmann 3-BD",0.6824,0.946,10.97,71.42,196.46,5.01,2006-06-06.1,5.14,JFc,6,9,8,,,,,
"   73P/Schwassmann-Wachmann 3-BE",0.6824,0.939,11.32,69.69,199.00,4.98,2006-06-06.9,5.09,JFc,5,9,16,,,,,
"   73P/Schwassmann-Wachmann 3-BF",0.6857,0.940,11.32,69.83,198.81,5.04,2006-06-07.0,5.17,JFc,11,8,13,,,,,
"   73P/Schwassmann-Wachmann 3-BG",0.6848,0.939,11.32,69.72,198.95,5.02,2006-06-08.8,5.14,JFc,7,9,11,,,,,
"   73P/Schwassmann-Wachmann 3-BH",0.6824,0.940,11.29,69.80,198.84,4.98,2006-06-08.6,5.09,JFc,6,9,9,,,,,
"   73P/Schwassmann-Wachmann 3-BI",0.6825,0.940,11.30,69.75,198.91,4.98,2006-06-08.7,5.09,JFc,7,9,23,,,,,
"   73P/Schwassmann-Wachmann 3-BJ",0.6911,0.939,11.37,69.88,198.80,5.14,2006-06-08.6,5.3,JFc,8,9,13,,,,,
"   73P/Schwassmann-Wachmann 3-BK",0.6915,0.939,11.37,69.90,198.78,5.15,2006-06-08.8,5.31,JFc,11,9,14,,,,,
"   73P/Schwassmann-Wachmann 3-BL",0.6962,0.939,11.41,69.97,198.70,5.24,2006-06-08.8,5.44,JFc,6,9,9,,,,,
"   73P/Schwassmann-Wachmann 3-BM",0.6824,0.940,11.29,69.78,198.86,4.98,2006-06-09.0,5.09,JFc,6,9,13,,,,,
"   73P/Schwassmann-Wachmann 3-BN",0.6918,0.939,11.38,69.88,198.79,5.15,2006-06-08.2,5.32,JFc,6,9,31,,,,,
"   73P/Schwassmann-Wachmann 3-BO",0.6918,0.939,11.38,69.89,198.77,5.16,2006-06-08.2,5.32,JFc,21,7,28,,,,,
"   73P/Schwassmann-Wachmann 3-BP",0.6825,0.940,11.29,69.81,198.85,4.98,2006-06-08.3,5.09,JFc,8,9,32,,,,,
"   73P/Schwassmann-Wachmann 3-BQ",0.6925,0.939,11.39,69.87,198.82,5.17,2006-06-08.3,5.34,JFc,7,9,25,,,,,
"   73P/Schwassmann-Wachmann 3-BR",0.6852,0.940,11.32,69.83,198.84,5.03,2006-06-06.2,5.16,JFc,28,8,20,,,,,
"   73P/Schwassmann-Wachmann 3-BS",0.6986,0.939,11.44,69.94,198.77,5.29,2006-06-05.7,5.5,JFc,12,9,12,,,,,
"   73P/Schwassmann-Wachmann 3-BT",0.6856,0.972,11.24,69.66,199.35,5.21,2017-03-16.8,5.44,JFc,250,6,353,,-1.1e-07,3.1e-08,,
"   73P/Schwassmann-Wachmann 3-BU",0.6677,0.960,11.05,70.74,199.85,4.82,2022-08-24.8,4.91,JFc,7,9,15,,,,,
"   73P/Schwassmann-Wachmann 3-BV",0.6892,0.974,11.24,69.52,199.39,5.29,2022-08-24.9,5.55,JFc,22,8,15,,,,,
"   73P/Schwassmann-Wachmann 3-BW",0.7778,1.001,11.61,67.33,198.68,8.00,2022-08-25.4,9.55,JFc,4,9,12,,,,,
"   73P/Schwassmann-Wachmann 3-BX",0.6873,0.974,11.26,69.49,199.38,5.26,2022-08-25.3,5.5,JFc,10,8,38,,,,,
"   73P/Schwassmann-Wachmann 3-BY",0.6799,0.971,11.20,69.77,199.46,5.10,2022-08-24.2,5.28,JFc,5,9,25,,,,,
"   74P/Smirnova-Chernykh",0.1477,3.550,6.65,77.08,86.57,4.78,2009-07-26.7,8.5,ETc,9982,0,5920,,2.1e-07,-9.7e-08,,
"   75D/Kohoutek",0.4963,1.785,5.91,269.69,175.80,5.30,1994-06-29.8,6.67,JFc,4784,,81,,4.0e-08,8.7e-09,,
"   76P/West-Kohoutek-Ikemura",0.5384,1.602,30.48,84.11,0.05,5.34,2013-05-08.0,6.47,JFc,9743,0,1156,,4.3e-10,-1.7e-10,,
"   77P/Longmore",0.3542,2.333,24.34,14.89,196.95,4.89,2016-05-14.4,6.87,JFc,17972,0,2610,,7.6e-10,-4.9e-10,6.9e-10,
"   78P/Gehrels 2",0.4616,2.012,6.25,210.56,192.75,5.46,2012-01-12.1,7.22,JFc,3634,0,5389,,-4.4e-09,-2.8e-10,,
"   79P/du Toit-Hartley",0.5941,1.231,2.89,307.84,253.27,4.83,2008-05-28.4,5.28,JFc,9595,1,215,,-4.0e-10,-6.7e-13,,
"   79P/du Toit-Hartley-A",0.6023,1.195,2.94,309.38,251.57,4.81,1982-03-30.4,5.21,JFc,138,6,28,,,,,
"   79P/du Toit-Hartley-B",0.5996,1.194,2.94,309.31,251.72,4.77,1982-03-30.9,5.15,JFc,23,9,17,,,,,
"   80P/Peters-Hartley",0.5994,1.612,29.93,259.84,339.17,6.44,2014-11-10.2,8.07,JFc,15016,0,179,,1.0e-08,-7.9e-10,-5.5e-10,
"   81P/Wild 2",0.5374,1.596,3.24,136.11,41.73,5.30,2022-12-15.7,6.41,JFc,3613,0,2795,,2.8e-09,3.1e-10,-1.0e-09,-127
"   82P/Gehrels 3",0.1233,3.626,1.13,239.59,227.50,4.65,2001-08-30.2,8.41,ETc,16277,0,143,,,2.9e-11,,
"   83D/Russell 1",0.5172,1.612,22.66,230.84,0.38,5.06,1985-07-05.2,6.1,JFc,2302,1,20,,,,,
"   84P/Giclas",0.4945,1.840,7.28,112.39,276.40,5.44,2013-07-23.0,6.95,JFc,15537,0,1745,,5.7e-10,-2.3e-11,,
"   85D/Boethin",0.7812,1.135,4.30,359.40,37.62,9.24,2008-12-12.7,11.8,JFc,4042,8,51,,0.0e+00,0.0e+00,,
"   86P/Wild 3",0.3722,2.264,15.47,72.39,179.19,4.95,2015-04-03.4,6.85,JFc,5193,1,32,,,,,
"   87P/Bus",0.3893,2.101,2.60,181.89,24.76,4.78,2013-12-19.9,6.38,ETc,7602,1,667,,1.3e-08,-2.0e-09,5.9e-09,
"   88P/Howell",0.5638,1.355,4.38,56.70,235.85,4.86,2020-09-26.8,5.48,JFc,3654,0,2669,,8.2e-09,-5.9e-10,-8.3e-10,25.8
"   89P/Russell 2",0.4080,2.221,12.08,41.45,250.14,5.28,2016-12-14.6,7.26,JFc,16166,0,634,,8.1e-09,-3.5e-10,-3.9e-10,
"   90P/Gehrels 1",0.5098,2.975,9.64,13.25,29.27,9.16,2017-06-19.2,15,JFc,6092,2,577,,2.4e-07,3.4e-07,,
"   91P/Russell 3",0.3302,2.606,14.09,247.90,354.87,5.18,2005-06-27.0,7.67,JFc,9051,0,337,,,1.5e-09,,
"   92P/Sanguin",0.6593,1.825,19.44,181.46,163.79,8.89,2015-03-01.1,12.4,JFc,13943,0,919,,3.7e-09,-8.4e-11,-2.0e-09,
"   93P/Lovas 1",0.6127,1.700,12.20,339.63,74.90,7.08,2017-03-01.4,9.2,JFc,13649,1,3386,,4.2e-10,-5.0e-11,,
"   94P/Russell 4",0.3641,2.233,6.18,70.90,92.68,4.79,2016-10-27.8,6.58,ETc,26937,0,2175,,1.6e-10,1.5e-11,,
"   96P/Machholz 1",0.9592,0.124,58.14,94.25,14.79,5.95,2017-10-27.9,5.29,JFC,4080,0,667,,2.7e-10,-2.4e-12,1.0e-10,
"   97P/Metcalf-Brewington",0.4569,2.607,17.86,185.17,228.22,6.99,2022-02-20.6,10.5,JFc,7819,1,391,,-4.0e-08,-1.3e-08,,
"   98P/Takamizawa",0.5606,1.672,10.55,114.75,157.95,5.94,2013-08-05.4,7.42,JFc,5528,0,558,,1.4e-10,7.0e-10,,
"   99P/Kowal 1",0.2297,4.726,4.34,28.18,174.19,7.54,2022-04-08.3,15.2,JFc,17259,0,1698,,,,,
"  100P/Hartley 1",0.4138,2.010,25.58,37.77,181.88,4.85,2016-04-02.0,6.35,JFc,13577,0,637,,2.1e-09,-9.6e-11,-6.5e-10,
"  101P/Chernykh",0.5977,2.326,5.03,116.59,277.43,9.24,2020-01-07.7,13.9,JFc,6078,0,1211,,1.5e-07,2.4e-09,,
"  101P/Chernykh-B",0.5947,2.351,5.08,130.23,263.19,9.25,2005-12-24.3,14,JFc,109,6,98,,,,,
"  102P/Shoemaker 1",0.4732,1.969,26.24,339.87,18.74,5.50,2013-09-01.1,7.22,JFc,5645,1,392,,-5.3e-09,-1.3e-09,,
"  103P/Hartley 2",0.6938,1.064,13.61,219.75,181.30,5.89,2023-10-12.5,6.48,JFc,2388,0,2816,,,,,
